CCSDS_OMM_VERS = 2.0
CREATION_DATE  = 
ORIGINATOR     = 

OBJECT_NAME    = STARLINK-36861
OBJECT_ID      = 2026-037C
CENTER_NAME    = EARTH
REF_FRAME      = TEME
TIME_SYSTEM    = UTC
MEAN_ELEMENT_THEORY = SGP/SGP4

EPOCH          = 2026-03-06T20:00:00.999360
MEAN_MOTION    = 15.88502197
ECCENTRICITY   = .0001435
INCLINATION    = 43.0000
RA_OF_ASC_NODE = 216.1235
ARG_OF_PERICENTER = 283.8298
MEAN_ANOMALY   = 244.8647

EPHEMERIS_TYPE = 0
CLASSIFICATION_TYPE = U
NORAD_CAT_ID   = 67934
ELEMENT_SET_NO = 999
REV_AT_EPOCH   = 273
BSTAR          = -.53709E-2
MEAN_MOTION_DOT = -.1359324E-1
MEAN_MOTION_DDOT = 0

CCSDS_OMM_VERS = 2.0
CREATION_DATE  = 
ORIGINATOR     = 

OBJECT_NAME    = STARLINK-36860
OBJECT_ID      = 2026-037D
CENTER_NAME    = EARTH
REF_FRAME      = TEME
TIME_SYSTEM    = UTC
MEAN_ELEMENT_THEORY = SGP/SGP4

EPOCH          = 2026-03-06T20:00:00.999360
MEAN_MOTION    = 15.88630401
ECCENTRICITY   = .0001466
INCLINATION    = 42.9999
RA_OF_ASC_NODE = 216.1148
ARG_OF_PERICENTER = 286.6034
MEAN_ANOMALY   = 245.6420

EPHEMERIS_TYPE = 0
CLASSIFICATION_TYPE = U
NORAD_CAT_ID   = 67935
ELEMENT_SET_NO = 999
REV_AT_EPOCH   = 273
BSTAR          = -.54667E-2
MEAN_MOTION_DOT = -.1388384E-1
MEAN_MOTION_DDOT = 0

CCSDS_OMM_VERS = 2.0
CREATION_DATE  = 
ORIGINATOR     = 

OBJECT_NAME    = STARLINK-36848
OBJECT_ID      = 2026-037E
CENTER_NAME    = EARTH
REF_FRAME      = TEME
TIME_SYSTEM    = UTC
MEAN_ELEMENT_THEORY = SGP/SGP4

EPOCH          = 2026-03-06T20:00:00.999360
MEAN_MOTION    = 15.88882061
ECCENTRICITY   = .0001217
INCLINATION    = 42.9999
RA_OF_ASC_NODE = 216.0969
ARG_OF_PERICENTER = 284.6993
MEAN_ANOMALY   = 254.4119

EPHEMERIS_TYPE = 0
CLASSIFICATION_TYPE = U
NORAD_CAT_ID   = 67936
ELEMENT_SET_NO = 999
REV_AT_EPOCH   = 273
BSTAR          = -.55068E-2
MEAN_MOTION_DOT = -.1412751E-1
MEAN_MOTION_DDOT = 0

CCSDS_OMM_VERS = 2.0
CREATION_DATE  = 
ORIGINATOR     = 

OBJECT_NAME    = STARLINK-36370
OBJECT_ID      = 2026-037F
CENTER_NAME    = EARTH
REF_FRAME      = TEME
TIME_SYSTEM    = UTC
MEAN_ELEMENT_THEORY = SGP/SGP4

EPOCH          = 2026-03-06T20:00:00.999360
MEAN_MOTION    = 15.88743783
ECCENTRICITY   = .0001455
INCLINATION    = 43.0001
RA_OF_ASC_NODE = 216.1060
ARG_OF_PERICENTER = 287.3349
MEAN_ANOMALY   = 248.5034

EPHEMERIS_TYPE = 0
CLASSIFICATION_TYPE = U
NORAD_CAT_ID   = 67937
ELEMENT_SET_NO = 999
REV_AT_EPOCH   = 273
BSTAR          = -.55074E-2
MEAN_MOTION_DOT = -.1404422E-1
MEAN_MOTION_DDOT = 0

CCSDS_OMM_VERS = 2.0
CREATION_DATE  = 
ORIGINATOR     = 

OBJECT_NAME    = STARLINK-36371
OBJECT_ID      = 2026-037G
CENTER_NAME    = EARTH
REF_FRAME      = TEME
TIME_SYSTEM    = UTC
MEAN_ELEMENT_THEORY = SGP/SGP4

EPOCH          = 2026-03-06T20:00:00.999360
MEAN_MOTION    = 15.89028156
ECCENTRICITY   = .0001416
INCLINATION    = 43.0000
RA_OF_ASC_NODE = 216.0888
ARG_OF_PERICENTER = 285.0728
MEAN_ANOMALY   = 257.1276

EPHEMERIS_TYPE = 0
CLASSIFICATION_TYPE = U
NORAD_CAT_ID   = 67938
ELEMENT_SET_NO = 999
REV_AT_EPOCH   = 273
BSTAR          = -.54408E-2
MEAN_MOTION_DOT = -.1407254E-1
MEAN_MOTION_DDOT = 0

CCSDS_OMM_VERS = 2.0
CREATION_DATE  = 
ORIGINATOR     = 

OBJECT_NAME    = STARLINK-36246
OBJECT_ID      = 2026-037H
CENTER_NAME    = EARTH
REF_FRAME      = TEME
TIME_SYSTEM    = UTC
MEAN_ELEMENT_THEORY = SGP/SGP4

EPOCH          = 2026-03-06T20:00:00.999360
MEAN_MOTION    = 15.89171062
ECCENTRICITY   = .0001362
INCLINATION    = 42.9999
RA_OF_ASC_NODE = 216.0816
ARG_OF_PERICENTER = 283.8460
MEAN_ANOMALY   = 261.4292

EPHEMERIS_TYPE = 0
CLASSIFICATION_TYPE = U
NORAD_CAT_ID   = 67939
ELEMENT_SET_NO = 999
REV_AT_EPOCH   = 265
BSTAR          = -.5384E-2
MEAN_MOTION_DOT = -.1403334E-1
MEAN_MOTION_DDOT = 0

CCSDS_OMM_VERS = 2.0
CREATION_DATE  = 
ORIGINATOR     = 

OBJECT_NAME    = STARLINK-36907
OBJECT_ID      = 2026-037J
CENTER_NAME    = EARTH
REF_FRAME      = TEME
TIME_SYSTEM    = UTC
MEAN_ELEMENT_THEORY = SGP/SGP4

EPOCH          = 2026-03-06T20:00:00.999360
MEAN_MOTION    = 15.89560941
ECCENTRICITY   = .0001226
INCLINATION    = 43.0000
RA_OF_ASC_NODE = 216.0559
ARG_OF_PERICENTER = 283.3988
MEAN_ANOMALY   = 271.6612

EPHEMERIS_TYPE = 0
CLASSIFICATION_TYPE = U
NORAD_CAT_ID   = 67940
ELEMENT_SET_NO = 999
REV_AT_EPOCH   = 273
BSTAR          = -.53634E-2
MEAN_MOTION_DOT = -.14231E-1
MEAN_MOTION_DDOT = 0

CCSDS_OMM_VERS = 2.0
CREATION_DATE  = 
ORIGINATOR     = 

OBJECT_NAME    = STARLINK-36927
OBJECT_ID      = 2026-037K
CENTER_NAME    = EARTH
REF_FRAME      = TEME
TIME_SYSTEM    = UTC
MEAN_ELEMENT_THEORY = SGP/SGP4

EPOCH          = 2026-03-06T20:00:00.999360
MEAN_MOTION    = 15.89828796
ECCENTRICITY   = .0001276
INCLINATION    = 42.9999
RA_OF_ASC_NODE = 216.0400
ARG_OF_PERICENTER = 284.1415
MEAN_ANOMALY   = 277.2027

EPHEMERIS_TYPE = 0
CLASSIFICATION_TYPE = U
NORAD_CAT_ID   = 67941
ELEMENT_SET_NO = 999
REV_AT_EPOCH   = 273
BSTAR          = -.53322E-2
MEAN_MOTION_DOT = -.1433006E-1
MEAN_MOTION_DDOT = 0

CCSDS_OMM_VERS = 2.0
CREATION_DATE  = 
ORIGINATOR     = 

OBJECT_NAME    = STARLINK-36914
OBJECT_ID      = 2026-037L
CENTER_NAME    = EARTH
REF_FRAME      = TEME
TIME_SYSTEM    = UTC
MEAN_ELEMENT_THEORY = SGP/SGP4

EPOCH          = 2026-03-06T20:00:00.999360
MEAN_MOTION    = 15.89280183
ECCENTRICITY   = .0001203
INCLINATION    = 42.9999
RA_OF_ASC_NODE = 216.0718
ARG_OF_PERICENTER = 284.3166
MEAN_ANOMALY   = 264.6201

EPHEMERIS_TYPE = 0
CLASSIFICATION_TYPE = U
NORAD_CAT_ID   = 67942
ELEMENT_SET_NO = 999
REV_AT_EPOCH   = 273
BSTAR          = -.54709E-2
MEAN_MOTION_DOT = -.1429797E-1
MEAN_MOTION_DDOT = 0

CCSDS_OMM_VERS = 2.0
CREATION_DATE  = 
ORIGINATOR     = 

OBJECT_NAME    = STARLINK-36851
OBJECT_ID      = 2026-037M
CENTER_NAME    = EARTH
REF_FRAME      = TEME
TIME_SYSTEM    = UTC
MEAN_ELEMENT_THEORY = SGP/SGP4

EPOCH          = 2026-03-06T20:00:00.999360
MEAN_MOTION    = 15.89420247
ECCENTRICITY   = .0001327
INCLINATION    = 43.0000
RA_OF_ASC_NODE = 216.0641
ARG_OF_PERICENTER = 286.1266
MEAN_ANOMALY   = 265.9003

EPHEMERIS_TYPE = 0
CLASSIFICATION_TYPE = U
NORAD_CAT_ID   = 67943
ELEMENT_SET_NO = 999
REV_AT_EPOCH   = 273
BSTAR          = -.54377E-2
MEAN_MOTION_DOT = -.1431262E-1
MEAN_MOTION_DDOT = 0

CCSDS_OMM_VERS = 2.0
CREATION_DATE  = 
ORIGINATOR     = 

OBJECT_NAME    = STARLINK-36892
OBJECT_ID      = 2026-037N
CENTER_NAME    = EARTH
REF_FRAME      = TEME
TIME_SYSTEM    = UTC
MEAN_ELEMENT_THEORY = SGP/SGP4

EPOCH          = 2026-03-06T20:00:00.999360
MEAN_MOTION    = 15.89698933
ECCENTRICITY   = .0001253
INCLINATION    = 42.9998
RA_OF_ASC_NODE = 216.0487
ARG_OF_PERICENTER = 284.1224
MEAN_ANOMALY   = 274.0713

EPHEMERIS_TYPE = 0
CLASSIFICATION_TYPE = U
NORAD_CAT_ID   = 67944
ELEMENT_SET_NO = 999
REV_AT_EPOCH   = 273
BSTAR          = -.53683E-2
MEAN_MOTION_DOT = -.1433052E-1
MEAN_MOTION_DDOT = 0

CCSDS_OMM_VERS = 2.0
CREATION_DATE  = 
ORIGINATOR     = 

OBJECT_NAME    = STARLINK-36908
OBJECT_ID      = 2026-037P
CENTER_NAME    = EARTH
REF_FRAME      = TEME
TIME_SYSTEM    = UTC
MEAN_ELEMENT_THEORY = SGP/SGP4

EPOCH          = 2026-03-06T20:00:00.999360
MEAN_MOTION    = 15.89914099
ECCENTRICITY   = .0001416
INCLINATION    = 42.9999
RA_OF_ASC_NODE = 216.0307
ARG_OF_PERICENTER = 282.0570
MEAN_ANOMALY   = 283.0377

EPHEMERIS_TYPE = 0
CLASSIFICATION_TYPE = U
NORAD_CAT_ID   = 67945
ELEMENT_SET_NO = 999
REV_AT_EPOCH   = 273
BSTAR          = -.53349E-2
MEAN_MOTION_DOT = -.1439244E-1
MEAN_MOTION_DDOT = 0

