STARLINK-36861          
1 67934U 26037C   26065.83334490 -.01359324  00000+0 -53709-2 0  9994
2 67934  43.0000 216.1235 0001435 283.8298 244.8647 15.88502197  2734
STARLINK-36860          
1 67935U 26037D   26065.83334490 -.01388384  00000+0 -54667-2 0  9997
2 67935  42.9999 216.1148 0001466 286.6034 245.6420 15.88630401  2734
STARLINK-36848          
1 67936U 26037E   26065.83334490 -.01412751  00000+0 -55068-2 0  9990
2 67936  42.9999 216.0969 0001217 284.6993 254.4119 15.88882061  2735
STARLINK-36370          
1 67937U 26037F   26065.83334490 -.01404422  00000+0 -55074-2 0  9994
2 67937  43.0001 216.1060 0001455 287.3349 248.5034 15.88743783  2731
STARLINK-36371          
1 67938U 26037G   26065.83334490 -.01407254  00000+0 -54408-2 0  9991
2 67938  43.0000 216.0888 0001416 285.0728 257.1276 15.89028156  2736
STARLINK-36246          
1 67939U 26037H   26065.83334490 -.01403334  00000+0 -53840-2 0  9996
2 67939  42.9999 216.0816 0001362 283.8460 261.4292 15.89171062  2654
STARLINK-36907          
1 67940U 26037J   26065.83334490 -.01423100  00000+0 -53634-2 0  9992
2 67940  43.0000 216.0559 0001226 283.3988 271.6612 15.89560941  2730
STARLINK-36927          
1 67941U 26037K   26065.83334490 -.01433006  00000+0 -53322-2 0  9993
2 67941  42.9999 216.0400 0001276 284.1415 277.2027 15.89828796  2737
STARLINK-36914          
1 67942U 26037L   26065.83334490 -.01429797  00000+0 -54709-2 0  9996
2 67942  42.9999 216.0718 0001203 284.3166 264.6201 15.89280183  2731
STARLINK-36851          
1 67943U 26037M   26065.83334490 -.01431262  00000+0 -54377-2 0  9998
2 67943  43.0000 216.0641 0001327 286.1266 265.9003 15.89420247  2731
STARLINK-36892          
1 67944U 26037N   26065.83334490 -.01433052  00000+0 -53683-2 0  9997
2 67944  42.9998 216.0487 0001253 284.1224 274.0713 15.89698933  2732
STARLINK-36908          
1 67945U 26037P   26065.83334490 -.01439244  00000+0 -53349-2 0  9996
2 67945  42.9999 216.0307 0001416 282.0570 283.0377 15.89914099  2737
